ESTCUBE 1               
1 39161U 13021C   21107.46134202  .00000170  00000-0  34597-4 0  9990
2 39161  97.9386 190.0500 0009551 354.3918   5.7187 14.72455118426774
FENGYUN 3C              
1 39260U 13052A   21107.50204577  .00000006  00000-0  23824-4 0  9991
2 39260  98.5068 150.9870 0012243  64.4790 295.7651 14.15865000391648
CASSIOPE                
1 39265U 13055A   21107.51274630  .00006321  00000-0  17433-3 0  9991
2 39265  80.9688 356.0454 0651604 132.6157 233.1912 14.31773534391271
ZACUBE-1 (TSHEPISOSAT)  
1 39417U 13066B   21107.52846507  .00000383  00000-0  53978-4 0  9998
2 39417  97.5902  95.0240 0058753   2.4959 357.6536 14.81476429400055
CINEMA-3 (KHUSAT-2)     
1 39426U 13066L   21107.39466277  .00000135  00000-0  28736-4 0  9994
2 39426  97.7497  62.3778 0104581 160.1441 200.3883 14.69655513396689
TRITON-1                
1 39427U 13066M   21107.38950070  .00000230  00000-0  44401-4 0  9996
2 39427  97.7696  58.2043 0113129 185.4939 174.5035 14.68198815396250
DELFI-N3XT              
1 39428U 13066N   21107.41398974  .00000380  00000-0  67952-4 0  9992
2 39428  97.7749  56.6796 0119176 198.3298 161.3596 14.67946257396016
GOMX-1                  
1 39430U 13066Q   21107.51987371  .00000278  00000-0  59448-4 0  9998
2 39430  97.8129  34.0912 0149748 307.2857  51.4759 14.59581053394155
BRITE-PL1 (LEM)         
1 39431U 13066R   21107.40219832  .00000060  00000-0  22453-4 0  9992
2 39431  97.7600 352.5826 0203430 107.4162 254.9386 14.47129649390742
ICUBE-1                 
1 39432U 13066S   21107.54989848  .00000421  00000-0  47821-4 0  9996
2 39432  97.4796 128.7831 0030350 244.8491 114.9579 14.90828914401230
HUMSAT-D                
1 39433U 13066T   21107.52145751  .00000282  00000-0  32306-4 0  9999
2 39433  97.4757 135.5384 0029290 223.5301 136.3607 14.92821575401656
VELOX-PII               
1 39438U 13066Y   21107.51311642  .00000320  00000-0  49114-4 0  9995
2 39438  97.6380  85.5555 0071491  44.6872 316.0070 14.78187354398070
FIRST-MOVE              
1 39439U 13066Z   21107.47111968  .00000743  00000-0  95656-4 0  9991
2 39439  97.5960  96.2872 0064861   0.7518 359.3782 14.82523900398917
CUBEBUG-2 (LO-74)       
1 39440U 13066AA  21107.51684376  .00000344  00000-0  54151-4 0  9998
2 39440  97.6711  79.8891 0081411  73.5188 287.4949 14.76204522397434
NEE-02 KRYSAOR          
1 39441U 13066AB  21107.46723202  .00000220  00000-0  38015-4 0  9999
2 39441  97.6804  77.2090 0083029  84.1903 276.8765 14.75154049397223
FUNCUBE-1 (AO-73)       
1 39444U 13066AE  21107.48223387  .00000483  00000-0  65095-4 0  9992
2 39444  97.5813  97.3322 0057545 353.3572   6.6872 14.82375493398408
HINCUBE                 
1 39445U 13066AF  21107.55075412  .00000464  00000-0  62957-4 0  9998
2 39445  97.5827  97.2505 0057606 354.9084   5.1537 14.82206519398368
UWE-3                   
1 39446U 13066AG  21107.52621971  .00000380  00000-0  56452-4 0  9993
2 39446  97.6327  86.8916 0070761  38.9880 321.6403 14.78742027397502
AIST-1 (RS-41)          
1 39492U 13078C   21107.49531990  .00000207  00000-0  19794-4 0  9990
2 39492  82.4150 283.9935 0021525  78.0952 282.2678 14.88013118396439
SPROUT                  
1 39770U 14029E   21107.29885332  .00001026  00000-0  11693-3 0  9995
2 39770  97.9076 218.6544 0010015  55.1813 305.0347 14.88315221374243
UNISAT-6                
1 40012U 14033C   21107.55331609  .00000241  00000-0  42722-4 0  9999
2 40012  97.6818 313.1581 0059613  97.1184 263.6809 14.74280987367228
BUGSAT-1 (TITA)         
1 40014U 14033E   21107.54557955  .00000476  00000-0  48095-4 0  9993
2 40014  98.1057  84.9376 0031891   8.8774 351.3003 14.95697051372468
DUCHIFAT-1              
1 40021U 14033M   21107.41024071  .00000452  00000-0  51241-4 0  9996
2 40021  97.9684  46.9734 0013204  12.4130 347.7411 14.91268046371184
NANOSATC-BR1            
1 40024U 14033Q   21107.33912619  .00000438  00000-0  50854-4 0  9997
2 40024  97.9480  42.2003 0012684  18.2156 341.9513 14.90377670370497
QB50P1                  
1 40025U 14033R   21107.55290760  .00000504  00000-0  59027-4 0  9993
2 40025  97.9306  38.0906 0013058  25.0851 335.0997 14.89390658370358
DTUSAT-2                
1 40030U 14033W   21107.33566206  .00000384  00000-0  46805-4 0  9992
2 40030  97.9146  34.6034 0012486  22.6492 337.5273 14.88946243370224
QB50P2                  
1 40032U 14033Y   21107.43149863  .00000352  00000-0  43510-4 0  9996
2 40032  97.9151  34.7049 0012416  23.2820 336.8957 14.88902055370217
POLYITAN-1              
1 40042U 14033AJ  21107.39513270  .00000460  00000-0  54658-4 0  9994
2 40042  97.9400  38.6866 0015151  16.4332 343.7373 14.89189515370225
TIGRISAT                
1 40043U 14033AK  21107.45075899  .00000165  00000-0  31284-4 0  9994
2 40043  97.6789 314.4529 0061303  95.4949 265.3257 14.74509477366845
AISAT                   
1 40054U 14034B   21107.42758491  .00000535  00000-0  81168-4 0  9997
2 40054  98.3139 258.5060 0011762 235.0471 124.9634 14.78360028366512
CANX-4                  
1 40055U 14034C   21107.36788905  .00000121  00000-0  26029-4 0  9990
2 40055  98.2956 247.0973 0012906 274.7735  85.1999 14.75033041365902
CANX-5                  
1 40056U 14034D   21107.37235409  .00000129  00000-0  27170-4 0  9994
2 40056  98.2956 247.0889 0012918 275.0220  84.9513 14.75024111356711
VELOX-I                 
1 40057U 14034E   21107.47517816  .00000413  00000-0  64782-4 0  9997
2 40057  98.3189 259.5745 0009570 250.4903 109.5280 14.78125726366538
METEOR-M 2              
1 40069U 14037A   21107.51451133 -.00000015  00000-0  12229-4 0  9995
2 40069  98.4677 138.9786 0006841 114.5384 245.6508 14.20683439351389
DX1                     
1 40071U 14037C   21107.53002647  .00000129  00000-0  24035-4 0  9995
2 40071  98.4571 308.8272 0007222 239.4747 120.5768 14.81477514366272
UKUBE-1                 
1 40074U 14037F   21107.51537239  .00000381  00000-0  52330-4 0  9995
2 40074  98.4366 319.7869 0003497 213.4517 146.6473 14.84510204366861
FIREBIRD 3              
1 40377U 15003B   21107.48577574  .00003099  00000-0  11591-3 0  9999
2 40377  99.0893 236.0054 0118760  17.7108 342.8209 15.22030667343514
FIREBIRD 4              
1 40378U 15003C   21107.39843284  .00002677  00000-0  10056-3 0  9990
2 40378  99.0899 236.0307 0118843  17.8258 342.7087 15.22078356343500
GRIFEX                  
1 40379U 15003D   21107.55962432  .00002529  00000-0  10488-3 0  9991
2 40379  99.0857 226.0656 0129753  48.3704 312.8552 15.17803378342944
CP10 (EXOCUBE)          
1 40380U 15003E   21107.53022288  .00002356  00000-0  10309-3 0  9997
2 40380  99.0874 220.7056 0135566  66.5518 294.9894 15.15521958342582
DEORBITSAIL             
1 40719U 15032E   21107.58409416  .00000501  00000-0  77556-4 0  9990
2 40719  97.8356 354.1619 0015203 308.7953  51.1899 14.77306860310993
NUDT-PHONESAT           
1 40900U 15049B   21107.60819286  .00003644  00000-0  14439-3 0  9994
2 40900  97.4229 122.1316 0012132   3.3901 113.6725 15.25983851309542
XW-2A                   
1 40903U 15049E   21107.62708208  .00003396  00000-0  74140-4 0  9990
2 40903  97.2426 162.2878 0011044 231.1827 250.1081 15.44853471313406
XW-2C                   
1 40906U 15049H   21107.53846737  .00001169  00000-0  63073-4 0  9992
2 40906  97.4868 110.6579 0015947  43.5795  72.3629 15.16619755308333
XW-2D                   
1 40907U 15049J   21107.48726448  .00001218  00000-0  65034-4 0  9997
2 40907  97.4849 110.3806 0015305  40.9538 117.9098 15.16923542308357
LILACSAT-2              
1 40908U 15049K   21107.50763707  .00000355  00000-0  22892-4 0  9996
2 40908  97.5044 108.3332 0017321  53.8300 102.2026 15.14365544308007
XW-2E                   
1 40909U 15049L   21107.47274747  .00001772  00000-0  86946-4 0  9998
2 40909  97.4675 114.2984 0014234  29.8333 125.0174 15.19331155308671
XW-2F                   
1 40910U 15049M   21107.51622712  .00001626  00000-0  81175-4 0  9991
2 40910  97.4737 113.4174 0015308  28.6276  94.6893 15.18833085308475
XW-2B                   
1 40911U 15049N   21107.48533846  .00001209  00000-0  64751-4 0  9995
2 40911  97.4852 111.0674 0015264  42.2029 109.0477 15.16841867308241
KAITUO 1B               
1 40912U 15049P   21107.48860958  .00001995  00000-0  92007-4 0  9990
2 40912  97.4467 117.7455 0014491   3.6876 149.8796 15.21345738308929
TIANWANG 1B (TW-1B)     
1 40927U 15051C   21090.23184234  .13278223  23525-5  52265-3 0  9996
2 40927  97.0132 151.3964 0010452 252.6213 145.1028 16.42992726311945
TIANWANG 1A (TW-1A)     
1 40928U 15051D   21107.35606957  .00005204  00000-0  11125-3 0  9991
2 40928  97.0819 133.7350 0010822 146.8194 339.1787 15.45197100312251
LAPAN-A2                
1 40931U 15052B   21107.62227654  .00002188  00000-0  21535-3 0  9993
2 40931   5.9998 326.2562 0015035 258.4714 101.0822 14.76674738300291
LQSAT                   
1 40958U 15057A   21107.48253442  .00000035  00000-0  12869-4 0  9995
2 40958  97.8093 166.2373 0016605 251.5310 108.4104 14.73167226297271
ATHENOXAT 1             
1 41168U 15077C   21107.05522323  .00002777  00000-0  10636-3 0  9995
2 41168  14.9880 352.3434 0011061  36.9018 359.4615 15.15461682295459
GALASSIA                
1 41170U 15077E   21106.31763948  .00002534  00000-0  93127-4 0  9994
2 41170  14.9897 348.6306 0012175  55.8748 304.2727 15.15692310295291
VELOX-II                
1 41171U 15077F   21107.43568144  .00001972  00000-0  72442-4 0  9992
2 41171  14.9921  35.6832 0008560 306.4122  53.5409 15.12403738295046
CHUBUSAT-2              
1 41338U 16012B   21107.46714063  .00000448  00000-0  27895-4 0  9992
2 41338  31.0025 213.6976 0013727 249.6086 110.3075 15.00492426283431
CHUBUSAT-3              
1 41339U 16012C   21107.49619275  .00000459  00000-0  28643-4 0  9999
2 41339  31.0122 210.8037 0013524 258.4831 101.4297 15.00643495283439
